[{"OBJECT_NAME":"STARLINK-5399","OBJECT_ID":"2022-175AG","EPOCH":"2026-03-09T21:40:42.225600","MEAN_MOTION":15.08839236,"ECCENTRICITY":0.00014734,"INCLINATION":53.219,"RA_OF_ASC_NODE":28.033,"ARG_OF_PERICENTER":103.279,"MEAN_ANOMALY":256.8367,"EPHEMERIS_TYPE":0,"CLASSIFICATION_TYPE":"U","NORAD_CAT_ID":54788,"ELEMENT_SET_NO":999,"REV_AT_EPOCH":18016,"BSTAR":2.8739169e-5,"MEAN_MOTION_DOT":1.69e-6,"MEAN_MOTION_DDOT":0},{"OBJECT_NAME":"OBJECT J","OBJECT_ID":"2024-205J","EPOCH":"2026-03-09T23:28:57.561600","MEAN_MOTION":15.10710806,"ECCENTRICITY":0.00148701,"INCLINATION":97.4211,"RA_OF_ASC_NODE":142.3026,"ARG_OF_PERICENTER":147.8528,"MEAN_ANOMALY":212.3612,"EPHEMERIS_TYPE":0,"CLASSIFICATION_TYPE":"U","NORAD_CAT_ID":61902,"ELEMENT_SET_NO":999,"REV_AT_EPOCH":7320,"BSTAR":0.00056466438,"MEAN_MOTION_DOT":9.322e-5,"MEAN_MOTION_DDOT":0}]
